OBJECT_NAME,OBJECT_ID,EPOCH,MEAN_MOTION,ECCENTRICITY,INCLINATION,RA_OF_ASC_NODE,ARG_OF_PERICENTER,MEAN_ANOMALY,EPHEMERIS_TYPE,CLASSIFICATION_TYPE,NORAD_CAT_ID,ELEMENT_SET_NO,REV_AT_EPOCH,BSTAR,MEAN_MOTION_DOT,MEAN_MOTION_DDOT
LEMUR-2-LAILA,2025-276DQ,2026-06-03T03:27:26.869536,15.21106703,.00012718,97.4176,228.2407,150.4573,209.6735,0,U,66776,999,2831,.30568282E-3,.6732E-4,0
LEMUR-2-CELIJO-SB-PK,2025-276DW,2026-06-02T10:13:51.581280,14.99780582,.00085917,97.5292,224.6866,169.2335,190.9074,0,U,66781,999,2041,.62950949E-3,.7736E-4,0
LEMUR-2-FINNIAN,2025-276DX,2026-06-03T17:47:18.486816,15.00198931,.00082268,97.5250,226.1641,130.0272,230.1676,0,U,66782,999,1798,.61878755E-3,.7687E-4,0
LEMUR-2-STARLIGHT,2025-276DY,2026-06-03T03:38:18.460320,14.98878981,.00150619,97.5271,225.2684,169.1551,191.0000,0,U,66783,999,2809,.58889723E-3,.7075E-4,0
LEMUR-2-TARTIFLETTE,2025-276DZ,2026-06-03T03:36:26.781408,14.98889613,.00137169,97.5269,225.2721,175.6006,184.5341,0,U,66784,999,2809,.71204921E-3,.8568E-4,0
LEMUR-2-VUKASIN,2025-276EA,2026-06-03T03:44:46.589856,15.00195286,.00061078,97.5301,225.5417,158.1288,202.0198,0,U,66785,999,2804,.59853894E-3,.743E-4,0
LEMUR-2-HOTSPUR-TOM,2025-276EB,2026-06-03T00:11:50.804160,14.98767592,.00149046,97.5239,225.1225,172.5939,187.5507,0,U,66786,999,2800,.61283375E-3,.7344E-4,0
LEMUR-2-MYRA,2025-276EC,2026-06-03T17:16:39.352224,15.00057164,.00148671,97.5223,226.0441,186.4673,173.6362,0,U,66787,999,2819,.56494926E-3,.6997E-4,0
LEMUR-2 FIKRETDENGIZ,2026-004A,2026-06-03T13:16:36.378048,14.88221873,.00088388,97.8015,153.3224,173.3369,186.7966,0,U,67363,999,2125,.51674204E-3,.4718E-4,0
TWILIGHT-1 OBJECT B,2026-004B,2026-06-03T12:07:05.886336,14.87652816,.00089375,97.8058,153.2954,164.7673,195.3814,0,U,67364,999,2125,.21178479E-3,.1874E-4,0
LEMUR-2-MARIO-SOUSA,2026-004C,2026-06-03T11:18:37.632096,14.88398434,.00083935,97.7989,153.2384,174.1890,185.9426,0,U,67365,999,2125,.59671465E-3,.5481E-4,0
LEMUR-2-SONNENBLUME,2026-004E,2026-06-03T12:50:46.040640,14.88241802,.00079539,97.7982,153.2909,176.2351,183.8927,0,U,67367,999,2126,.38182113E-3,.3473E-4,0
LEMUR-2-WOBLER,2026-004F,2026-06-03T19:11:06.642816,14.88417583,.00085055,97.8037,153.6595,164.3388,195.8093,0,U,67368,999,2130,.50237169E-3,.4608E-4,0
LEMUR-2-GRAM-E-SUE,2026-004H,2026-06-03T18:57:15.499872,14.88408124,.00070139,97.7971,153.5553,175.4369,184.6913,0,U,67370,999,2130,.31120305E-3,.2832E-4,0
LEMUR-2-KATIE,2026-004AA,2026-06-03T12:32:19.463136,14.89940648,.00044114,97.8032,153.7076,121.3369,238.8281,0,U,67387,999,2127,.44723238E-3,.4252E-4,0
LEMUR-2-HCS-BAZUS,2026-004AB,2026-06-03T12:31:00.796800,14.89932904,.00040914,97.8019,153.6895,116.6895,243.4741,0,U,67388,999,2127,.53627726E-3,.511E-4,0
