LEMUR-2-LAILA           
1 66776U 25276DQ  26154.14406099  .00006732  00000+0  30568-3 0  9997
2 66776  97.4176 228.2407 0001271 150.4573 209.6735 15.21106703 28311
LEMUR-2-CELIJO-SB-PK    
1 66781U 25276DW  26153.42629145  .00007736  00000+0  62951-3 0  9998
2 66781  97.5292 224.6866 0008591 169.2335 190.9074 14.99780582 20410
LEMUR-2-FINNIAN         
1 66782U 25276DX  26154.74118619  .00007687  00000+0  61879-3 0  9997
2 66782  97.5250 226.1641 0008226 130.0272 230.1676 15.00198931 17981
LEMUR-2-STARLIGHT       
1 66783U 25276DY  26154.15160255  .00007075  00000+0  58890-3 0  9996
2 66783  97.5271 225.2684 0015061 169.1551 191.0000 14.98878981 28096
LEMUR-2-TARTIFLETTE     
1 66784U 25276DZ  26154.15030997  .00008568  00000+0  71205-3 0  9999
2 66784  97.5269 225.2721 0013716 175.6006 184.5341 14.98889613 28097
LEMUR-2-VUKASIN         
1 66785U 25276EA  26154.15609479  .00007430  00000+0  59854-3 0  9990
2 66785  97.5301 225.5417 0006107 158.1288 202.0198 15.00195286 28045
LEMUR-2-HOTSPUR-TOM     
1 66786U 25276EB  26154.00822690  .00007344  00000+0  61283-3 0  9990
2 66786  97.5239 225.1225 0014904 172.5939 187.5507 14.98767592 28004
LEMUR-2-MYRA            
1 66787U 25276EC  26154.71989991  .00006997  00000+0  56495-3 0  9999
2 66787  97.5223 226.0441 0014867 186.4673 173.6362 15.00057164 28191
LEMUR-2 FIKRETDENGIZ    
1 67363U 26004A   26154.55319882  .00004718  00000+0  51674-3 0  9991
2 67363  97.8015 153.3224 0008838 173.3369 186.7966 14.88221873 21253
TWILIGHT-1 OBJECT B     
1 67364U 26004B   26154.50492924  .00001874  00000+0  21178-3 0  9992
2 67364  97.8058 153.2954 0008937 164.7673 195.3814 14.87652816 21254
LEMUR-2-MARIO-SOUSA     
1 67365U 26004C   26154.47126889  .00005481  00000+0  59671-3 0  9990
2 67365  97.7989 153.2384 0008393 174.1890 185.9426 14.88398434 21254
LEMUR-2-SONNENBLUME     
1 67367U 26004E   26154.53525510  .00003473  00000+0  38182-3 0  9996
2 67367  97.7982 153.2909 0007953 176.2351 183.8927 14.88241802 21268
LEMUR-2-WOBLER          
1 67368U 26004F   26154.79938244  .00004608  00000+0  50237-3 0  9993
2 67368  97.8037 153.6595 0008505 164.3388 195.8093 14.88417583 21301
LEMUR-2-GRAM-E-SUE      
1 67370U 26004H   26154.78976273  .00002832  00000+0  31120-3 0  9996
2 67370  97.7971 153.5553 0007013 175.4369 184.6913 14.88408124 21306
LEMUR-2-KATIE           
1 67387U 26004AA  26154.52244749  .00004252  00000+0  44723-3 0  9993
2 67387  97.8032 153.7076 0004411 121.3369 238.8281 14.89940648 21273
LEMUR-2-HCS-BAZUS       
1 67388U 26004AB  26154.52153700  .00005110  00000+0  53628-3 0  9998
2 67388  97.8019 153.6895 0004091 116.6895 243.4741 14.89932904 21271
